#dP2020 12 16  0  0  0.00000000      96 __u+U ITR00 FIT  IAC
## 2136 259200.00000000   900.00000000 59199 0.0000000000000
+  115   C01C02C03C04C05C06C07C08C09C10C11C12C13C14C16C19C20
+        C21C22C23C24C25C26C27C28C29C30C32C33C34C35C36C37C40
+        E01E02E03E04E05E07E08E09E11E12E13E14E15E18E19E21E24
+        E25E26E27E30E31E33E36G01G02G03G04G05G06G07G08G09G10
+        G11G12G13G14G15G16G17G18G19G20G21G22G23G24G25G26G27
+        G28G29G30G31G32J01J02J03J07R01R02R03R04R05R07R08R09
+        R11R12R13R14R15R16R17R18R19R20R21R22R24  0  0  0  0
++        14 14  0  0 13  9  9  9  8 12  8  8  9  8  9  8  8
++         8  8  8  8  8  8  8  8  8  8  8  8  9  9  8  8 12
++         4  5  5  6  5  5  5  5  5  5  4  5  5  4  6  5  5
++         5  5  5  5  5  5  6  4  4  4  4  4  4  4  3  4  4
++         4  4  4  4  4  4  4  3  4  4  4  4  4  4  4  4  4
++         4  4  4  4  4  9  9  9 14  6  6  6  6  6  6  6  6
++         0  6  6  6  6  6  6  6  6  6  6  7  6  0  0  0  0
%c M  cc GPS ccc cccc cccc cccc cccc ccccc ccccc ccccc ccccc
%c cc cc ccc ccc cccc cccc cccc cccc ccccc ccccc ccccc ccccc
%f  0.0000000  0.000000000  0.00000000000  0.000000000000000
%f  0.0000000  0.000000000  0.00000000000  0.000000000000000
%i    0    0    0    0      0      0      0      0         0
%i    0    0    0    0      0      0      0      0         0
/* INFORMATION & ANALYSIS CENTER (IAC)            RAPID DATA
/* S/V CLOCKS ARE ALIGNED TO GNSS TIME                      
/* G:C1WC2W R:C1PC2P E:C1XC5X C:C2IC6I J:C1CC2S             
/* PCV:IGS14_2134 OL/AL:FES2004  NONE     YN ORB:CoN CLK:CoN
*  2020 12 16  9 45  0.00000000
PC01 -34404.831328  24426.629618    408.776931   -646.454526
PC02   4388.134199  41893.545667   -888.378002    666.173532
PC03      0.000000      0.000000      0.000000 999999.999999
PC04      0.000000      0.000000      0.000000 999999.999999
PC05  21849.151707  36030.889733   -889.784076   -538.974280
PC06 -22228.851154  34905.604852   7092.771034     60.235745
PC07  -7795.163461  32530.192027  26199.334845   -135.351921
PC08 -16081.911627  18165.428156 -34462.931799   -797.423827
PC09 -10234.560247  34601.149071  21727.911457    868.857027
PC10   4585.619724  38995.061643  16143.360013   -121.793797
PC11 -13271.365325  21410.220627 -11994.558484   -821.016087
PC12 -22936.446978  14982.949132   5430.069638    669.526920
PC13  -1031.389051  22736.360273 -35391.368898     55.424148
PC14  -3153.804027  25176.382869 -11654.553349   -305.703747
PC16 -21073.425785  35434.462246   8384.551962   -632.521054
PC19  -3600.212534 -27517.123321   2898.468804    655.833298
PC20   8559.660987 -19706.599602  17803.853778   -912.144679
PC21 -16153.872367   -233.423629 -22743.300099   -756.089558
PC22 -13989.004829 -19556.735686 -14149.023024   -816.481985
PC23  22315.051393  14329.492280   8674.371921   -893.570197
PC24 -15460.692458  10333.814721  20810.232223   -729.642903
PC25   5985.751171  17510.136779  20876.808628   -863.465617
PC26 -26324.018691  -1579.138577   9180.487460    943.321870
PC27  23210.555026  -7253.726325 -13716.323512    450.252525
PC28  13171.451741   9413.915163 -22721.254599   -133.390911
PC29   3719.825329 -20663.522130  18380.896006    325.407153
PC30  19089.878237 -20165.653852   2877.502672    418.110735
PC32  16184.261672    159.425603  22740.436646   -881.302181
PC33   3697.051619  27507.440775  -2960.524918   -872.942140
PC34 -18767.537791  20340.857099  -3491.061586   -785.193351
PC35 -13302.909970  -9248.420311  22719.354981   -511.054854
PC36  -5281.955872 -17606.835413 -20974.173555   -803.097858
PC37  26427.023487   2750.116730  -8473.406164   -864.195916
PC40  -1583.417199  36056.139391  21945.838298    111.475553
PE01  -6129.464081 -22973.421711 -17632.888186  -1004.500800
PE02   6201.865026  22989.281103  17573.911897    183.999800
PE03  -3238.396587  28774.345500   6161.240822   -376.587307
PE04 -10273.817063 -18436.656207 -20757.469506   -669.043647
PE05 -15035.649689  22365.575969 -12249.107887   -320.857837
PE07  17951.503579  -2968.295647  23343.201002   -475.266611
PE08  10418.506767  18097.385247  20975.674201   6076.339832
PE09 -17824.090892   3281.754968 -23409.873719   5830.989032
PE11 -28622.941844   3240.319880   6794.946931   6632.991944
PE12 -17149.047452 -10172.535260  21880.585453   5454.713711
PE13  28551.132968  -3128.386262  -7142.107370    408.465221
PE14 -15589.635465  -2595.109763  17804.349567  -1261.379105
PE15  17253.312461   9980.205002 -21869.056227    838.870494
PE18  18262.035036   9487.485415 -24885.818953  -1378.288771
PE19   4854.596935 -28920.080681  -4053.462556    154.285694
PE21  11522.775021 -11787.642473 -24582.840948   -637.561201
PE24 -23159.981638  -7196.443360  16983.873492   -638.273958
PE25 -11683.107830  11635.333957  24592.212679   -522.353868
PE26  22641.788634 -14586.254508  12277.746779   2376.564595
PE27  23011.162294   6563.988443 -17406.435852     71.232567
PE30  20475.211293  21351.790186    615.475680   3340.552513
PE31 -20924.538977 -20943.671919     65.723392   -476.546451
PE33   4176.643433 -17210.444484  23728.618494   -464.116851
PE36 -23063.363148  14365.121048 -11736.594500    467.148657
PG01  10041.772857  13607.294464 -20805.133482    795.029444
PG02  13615.414824 -14357.676999  18370.784910   -555.010853
PG03  12850.655974  23222.019170  -2065.239622    -31.209501
PG04   3235.602713  19423.290316  17803.010743   -164.768793
PG05   2321.501237 -19242.809568  17927.380602    -28.498979
PG06  24773.623638  -5963.385676   7632.028132     -4.026388
PG07  23564.439416   7142.103426  10894.315180   -434.874669
PG08  -3278.788714  23632.786534 -11353.408790     -3.092903
PG09  12786.553668   8659.336531  21542.354506   -301.997569
PG10 -17759.873573  -2989.776212 -19512.979926    -17.199112
PG11    258.590473  17799.196548 -20254.645936    -79.887559
PG12  -9069.126757 -24554.756188  -5199.057805     26.209950
PG13  12667.853011 -22905.184489  -4256.115169     75.585249
PG14  18126.227057   5641.030740 -18583.028833     65.086717
PG15   -440.772063 -23612.788834 -12142.750598   -182.931226
PG16  -4336.868215  18517.116558  18112.482211   -251.127859
PG17  18401.298494  -9429.389702 -16222.404442    367.729766
PG18 -24456.412789  -5717.574691   8723.093722    332.984386
PG19  19074.656286 -14704.854022 -11386.011298    -64.634231
PG20 -20944.199620 -12673.493853 -10694.722821    525.587819
PG21    949.369501  14956.078824 -21188.419267     78.087481
PG22   8463.292631  23149.180219  -9904.004280   -714.415272
PG23 -19328.118026 -12852.862305 -12967.904222    110.408906
PG24  -5933.318778 -15152.008475 -21264.729679      5.056188
PG25 -17396.978542 -19050.614505   6646.943563     40.879514
PG26 -12536.947121   9209.851369  21484.496832     15.210115
PG27 -12258.581261  23342.922541   -142.246825    -35.962823
PG28  16468.697601   2464.880002 -20074.336969    642.454493
PG29 -10517.962856 -10622.730835  21914.020769   -257.077351
PG30  26674.121203    270.214275    601.050272   -353.202360
PG31 -23978.476433   7007.979677   9611.049588    -87.935935
PG32 -18223.760795  10141.989503 -16262.211868      8.403628
PJ01 -20982.783067  27951.355286 -19036.724777   -335.083084
PJ02 -26208.534232  20971.331957  30422.855233      0.119841
PJ03 -33934.916745  24964.070480   3870.749068     -4.426683
PJ07 -25416.191655  33642.114449     24.608624      0.064667
PR01  -1267.563403 -25454.475993   -948.340318     72.121736
PR02  -9215.284168 -13883.686646 -19304.223542    458.837072
PR03 -10671.787279   5202.782795 -22535.630575     27.415863
PR04  -5888.399147  21107.983418 -13028.533188     65.885897
PR05   2003.474212  25128.261988   3815.624744     62.988497
PR07  10621.718464  -5970.098284  22445.147089    -41.821527
PR08   5992.987645 -21110.051343  13070.553679    -56.307867
PR09  22010.898928  12880.059016   1458.709625     13.349530
PR11      0.000000      0.000000      0.000000 999999.999999
PR12 -10659.815366 -15355.577897 -17343.409645    188.717107
PR13 -21921.632943 -12915.629270  -1869.268448    -48.032876
PR14 -20241.661182  -2855.061384  15264.145337     58.810113
PR15  -6919.685200   8678.654776  22987.147030    106.336927
PR16  11540.628001  15283.750083  16754.352117     -9.185767
PR17 -22489.931956   8879.765384   8207.286490    382.857019
PR18 -18416.921277  15264.339069  -8770.204620     59.836805
PR19  -5583.064594  13636.620676 -20816.949042   -123.960180
PR20  13552.571562   3396.213492 -21336.630609   -428.955615
PR21  22576.189983  -9450.515064  -7126.466969   -173.523598
PR22  17870.881123 -15359.149077   9873.820429    -87.251344
PR24 -14354.704845  -3162.684472  20874.954073     24.262922
EOF
